[{"OBJECT_NAME":"STARLINK-34990","OBJECT_ID":"2025-179K","EPOCH":"2026-03-09T15:38:25.794816","MEAN_MOTION":15.05652828,"ECCENTRICITY":0.00019326,"INCLINATION":97.6033,"RA_OF_ASC_NODE":112.9434,"ARG_OF_PERICENTER":92.026,"MEAN_ANOMALY":268.1188,"EPHEMERIS_TYPE":0,"CLASSIFICATION_TYPE":"U","NORAD_CAT_ID":65244,"ELEMENT_SET_NO":999,"REV_AT_EPOCH":3187,"BSTAR":0.00051733303,"MEAN_MOTION_DOT":7.412e-5,"MEAN_MOTION_DDOT":0},{"OBJECT_NAME":"IRIDIUM 33 DEB","OBJECT_ID":"1997-051ACD","EPOCH":"2026-02-15T04:06:14.442336","MEAN_MOTION":15.0282309,"ECCENTRICITY":0.00183243,"INCLINATION":86.3384,"RA_OF_ASC_NODE":302.6959,"ARG_OF_PERICENTER":121.5358,"MEAN_ANOMALY":29.3036,"EPHEMERIS_TYPE":0,"CLASSIFICATION_TYPE":"U","NORAD_CAT_ID":46971,"ELEMENT_SET_NO":999,"REV_AT_EPOCH":65196,"BSTAR":0.0024316654,"MEAN_MOTION_DOT":0.00032805,"MEAN_MOTION_DDOT":0}]
